name_en,country,country_code,latitude,longitude
Tirana,Albania,AL,41.327499,19.81889
Algiers,Algeria,DZ,36.752499,3.04197
Oran,Algeria,DZ,35.691109,-0.64167
Buenos Aires,Argentina,AR,-34.613152,-58.377232
San Carlos de Bariloche,Argentina,AR,-41.145569,-71.30822
Mendoza,Argentina,AR,-32.890839,-68.827171
Salta,Argentina,AR,-24.7859,-65.411659
Córdoba,Argentina,AR,-31.4135,-64.181053
Ushuaia,Argentina,AR,-54.799999,-68.300003
Rosario,Argentina,AR,-32.946819,-60.63932
Mar del Plata,Argentina,AR,-38.002281,-57.557541
Melbourne,Australia,AU,-37.813999,144.963318
Adelaide,Australia,AU,-34.928661,138.598633
Brisbane,Australia,AU,-27.467939,153.028091
Sydney,Australia,AU,-33.867851,151.207321
Perth,Australia,AU,-31.95224,115.861397
Vienna,Austria,AT,48.208488,16.37208
Salzburg,Austria,AT,47.799412,13.04399
Innsbruck,Austria,AT,47.262661,11.39454
Graz,Austria,AT,47.066669,15.45
Baku,Azerbaijan,AZ,40.37767,49.89201
Nassau,Bahamas,BS,25.058229,-77.343063
Manama,Bahrain,BH,26.215361,50.583199
Dhaka,Bangladesh,BD,23.7104,90.40744
Brussels,Belgium,BE,50.850449,4.34878
Brugge,Belgium,BE,51.20892,3.22424
Antwerpen,Belgium,BE,51.219891,4.40346
Oostende,Belgium,BE,51.223389,2.91185
Gent,Belgium,BE,51.049999,3.71667
Blankenberge,Belgium,BE,51.313061,3.13227
Leuven,Belgium,BE,50.879589,4.70093
Liège,Belgium,BE,50.633732,5.56749
Namur,Belgium,BE,50.4669,4.86746
La Paz,Bolivia,BO,-16.5,-68.150002
Cochabamba,Bolivia,BO,-17.3895,-66.156799
Kralendijk,"Bonaire, Saint Eustatius and Saba",BQ,12.15,-68.26667
Sarajevo,Bosnia and Herzegovina,BA,43.84864,18.35644
Rio de Janeiro,Brazil,BR,-22.902781,-43.2075
São Paulo,Brazil,BR,-23.547501,-46.636108
Salvador,Brazil,BR,-12.97111,-38.51083
Florianópolis,Brazil,BR,-27.59667,-48.549171
Curitiba,Brazil,BR,-25.42778,-49.27306
Fortaleza,Brazil,BR,-3.71722,-38.54306
Belo Horizonte,Brazil,BR,-19.92083,-43.937778
Natal,Brazil,BR,-5.795,-35.209438
Porto Alegre,Brazil,BR,-30.03306,-51.23
Brasília,Brazil,BR,-15.77972,-47.929722
Foz do Iguaçu,Brazil,BR,-25.547779,-54.588058
Porto Seguro,Brazil,BR,-16.44972,-39.06472
Campos do Jordão,Brazil,BR,-22.739441,-45.591389
Maceió,Brazil,BR,-9.66583,-35.735279
Recife,Brazil,BR,-8.05389,-34.881111
Balneário Camboriú,Brazil,BR,-26.990561,-48.63472
Manaus,Brazil,BR,-3.10194,-60.025002
João Pessoa,Brazil,BR,-7.115,-34.86306
Goiânia,Brazil,BR,-16.67861,-49.253891
Ubatuba,Brazil,BR,-23.433889,-45.07111
Ilhabela,Brazil,BR,-23.778061,-45.358059
Aracaju,Brazil,BR,-10.91111,-37.071671
Cabo Frio,Brazil,BR,-22.87944,-42.018608
Campinas,Brazil,BR,-22.90556,-47.060829
Cuiabá,Brazil,BR,-15.59611,-56.096668
Guarujá,Brazil,BR,-23.993059,-46.25639
Belém,Brazil,BR,-1.45583,-48.50444
Vitória,Brazil,BR,-20.319441,-40.33778
Ribeirão Preto,Brazil,BR,-21.1775,-47.81028
Londrina,Brazil,BR,-23.31028,-51.162781
São Luís,Brazil,BR,-2.52972,-44.30278
Joinville,Brazil,BR,-26.30444,-48.845558
Uberlândia,Brazil,BR,-18.91861,-48.277222
Guarulhos,Brazil,BR,-23.46278,-46.533329
São José dos Campos,Brazil,BR,-23.17944,-45.88694
Santos,Brazil,BR,-23.960831,-46.333611
Campo Grande,Brazil,BR,-20.44278,-54.646389
São José do Rio Preto,Brazil,BR,-20.819719,-49.37944
Bauru,Brazil,BR,-22.31472,-49.060558
Sorocaba,Brazil,BR,-23.501671,-47.458061
Niterói,Brazil,BR,-22.883329,-43.103611
Jundiaí,Brazil,BR,-23.18639,-46.884171
Sofia,Bulgaria,BG,42.69751,23.32415
Varna,Bulgaria,BG,43.216671,27.91667
Plovdiv,Bulgaria,BG,42.150002,24.75
Khett Siem Reab,Cambodia,KH,13.36179,103.860558
Phnom Penh,Cambodia,KH,11.56245,104.916008
Preah Seihanouk,Cambodia,KH,10.60932,103.529579
Toronto,Canada,CA,43.700111,-79.416298
Montréal,Canada,CA,45.508839,-73.587807
Vancouver,Canada,CA,49.24966,-123.119339
Calgary,Canada,CA,51.05011,-114.085289
Edmonton,Canada,CA,53.55014,-113.468712
Niagara Falls,Canada,CA,43.100121,-79.066269
Victoria,Canada,CA,48.432941,-123.369301
Ottawa,Canada,CA,45.411171,-75.69812
Mississauga,Canada,CA,43.578899,-79.658302
Winnipeg,Canada,CA,49.884399,-97.147041
Québec,Canada,CA,46.812279,-71.214539
Richmond,Canada,CA,49.170029,-123.136833
Kamloops,Canada,CA,50.666481,-120.319199
Saskatoon,Canada,CA,52.116791,-106.634521
Kelowna,Canada,CA,49.883072,-119.48568
Halifax,Canada,CA,44.645329,-63.572392
London,Canada,CA,42.983391,-81.23304
Surrey,Canada,CA,49.10635,-122.825089
Brampton,Canada,CA,43.683411,-79.766327
Hamilton,Canada,CA,43.250111,-79.849632
Kitchener,Canada,CA,43.425369,-80.5112
Laval,Canada,CA,45.56995,-73.692001
Santiago,Chile,CL,-33.45694,-70.64827
Valparaíso,Chile,CL,-33.039322,-71.627251
Viña del Mar,Chile,CL,-33.02457,-71.551826
Shanghai,China,CN,31.222219,121.458061
Beijing,China,CN,39.907501,116.397232
Guangzhou,China,CN,23.116671,113.25
Shenzhen,China,CN,22.54554,114.068298
Hangzhou,China,CN,30.29365,120.161423
Chengdu,China,CN,30.66667,104.066673
Suzhou,China,CN,31.304079,120.595383
Tianjin,China,CN,39.14222,117.176666
Nanjing,China,CN,32.061668,118.777779
Qingdao,China,CN,36.09861,120.371941
Sanya,China,CN,18.243059,109.504997
Xi’an,China,CN,34.258331,108.928612
Ningbo,China,CN,29.878189,121.549454
Xiamen,China,CN,24.47979,118.081871
Shenyang,China,CN,41.792221,123.432777
Chongqing,China,CN,29.56278,106.55278
Wuhan,China,CN,30.58333,114.26667
Dalian,China,CN,38.91222,121.602219
Dongguan,China,CN,23.048889,113.74472
Zhengzhou,China,CN,34.757778,113.648613
Changzhou,China,CN,31.773581,119.95401
Jinan,China,CN,36.668331,116.997223
Wuxi,China,CN,31.568871,120.288567
Changsha,China,CN,28.19874,112.970871
Hefei,China,CN,31.86389,117.28083
Dayan,China,CN,26.86879,100.220718
Fuzhou,China,CN,26.06139,119.306107
Guiyang,China,CN,26.58333,106.716667
Kunming,China,CN,25.038891,102.71833
Harbin,China,CN,45.75,126.650002
Changchun,China,CN,43.880001,125.322777
Zhongshan,China,CN,21.322559,110.582909
Taiyuan,China,CN,37.869438,112.56028
Nanchang,China,CN,28.683331,115.883331
Bogotá,Colombia,CO,4.60971,-74.081749
Cartagena,Colombia,CO,10.39972,-75.514442
Medellín,Colombia,CO,6.25184,-75.563591
Santa Marta,Colombia,CO,11.24079,-74.199043
Cali,Colombia,CO,3.43722,-76.522499
San Andrés,Colombia,CO,12.58472,-81.700562
Barranquilla,Colombia,CO,10.96854,-74.781319
Pereira,Colombia,CO,4.81333,-75.696114
Bucaramanga,Colombia,CO,7.12539,-73.119797
Manizales,Colombia,CO,5.06889,-75.51738
Cúcuta,Colombia,CO,7.89391,-72.50782
San José,Costa Rica,CR,9.93333,-84.083328
Dubrovnik,Croatia,HR,42.648071,18.092159
Split,Croatia,HR,43.508911,16.43915
Zadar,Croatia,HR,44.11972,15.24222
Zagreb,Croatia,HR,45.814442,15.97798
Trogir,Croatia,HR,43.512501,16.251671
Varadero,Cuba,CU,23.15361,-81.251389
Havana,Cuba,CU,23.13302,-82.383041
Willemstad,Curacao,CW,12.1084,-68.93354
Paphos,Cyprus,CY,34.76667,32.416672
Protaras,Cyprus,CY,35.012501,34.058331
Limassol,Cyprus,CY,34.674999,33.033329
Larnaca,Cyprus,CY,34.916672,33.629169
Nicosia,Cyprus,CY,35.166672,33.366669
Prague,Czech Republic,CZ,50.088039,14.42076
Karlovy Vary,Czech Republic,CZ,50.232712,12.87117
Brno,Czech Republic,CZ,49.195221,16.60796
Plzeň,Czech Republic,CZ,49.747471,13.37759
Ostrava,Czech Republic,CZ,49.834648,18.28204
Copenhagen,Denmark,DK,55.675941,12.56553
Århus,Denmark,DK,56.156738,10.21076
Punta Cana,Dominican Republic,DO,18.58182,-68.404312
Santo Domingo,Dominican Republic,DO,18.50012,-69.988571
Quito,Ecuador,EC,-0.22985,-78.524948
Guayaquil,Ecuador,EC,-2.18194,-79.89167
Cuenca,Ecuador,EC,-2.90054,-79.004532
Cairo,Egypt,EG,30.06263,31.24967
Al Ghardaqah,Egypt,EG,27.25738,33.812908
Alexandria,Egypt,EG,31.215639,29.955271
San Salvador,El Salvador,SV,13.68935,-89.18718
Tallinn,Estonia,EE,59.436958,24.753531
Addis Ababa,Ethiopia,ET,9.02497,38.746891
Helsinki,Finland,FI,60.169521,24.93545
Tampere,Finland,FI,61.499111,23.787121
Turku,Finland,FI,60.451481,22.26869
Vantaa,Finland,FI,60.29414,25.040991
Espoo,Finland,FI,60.2052,24.652201
Oulu,Finland,FI,65.01236,25.468161
Paris,France,FR,48.853409,2.3488
Nice,France,FR,43.703129,7.26608
Lyon,France,FR,45.748459,4.84671
Cannes,France,FR,43.55135,7.01275
Toulouse,France,FR,43.604259,1.44367
Marseille,France,FR,43.296951,5.38107
Strasbourg,France,FR,48.58342,7.74296
Bordeaux,France,FR,44.840439,-0.5805
Nantes,France,FR,47.217251,-1.55336
Montpellier,France,FR,43.61092,3.87723
Avignon,France,FR,43.948341,4.80892
Lille,France,FR,50.632969,3.05858
Lourdes,France,FR,43.099998,-0.05
Arles,France,FR,43.676811,4.63031
Saint-Malo,France,FR,48.650002,-2.01667
Biarritz,France,FR,43.480122,-1.55558
Tours,France,FR,47.383331,0.68333
Reims,France,FR,49.25,4.03333
Clermont-Ferrand,France,FR,45.779659,3.08628
Rennes,France,FR,48.11198,-1.67429
Nîmes,France,FR,43.833328,4.35
Aix-en-Provence,France,FR,43.528301,5.44973
Carcassonne,France,FR,43.216671,2.35
Antibes,France,FR,43.562408,7.12777
Dijon,France,FR,47.316669,5.01667
Limoges,France,FR,45.831532,1.2578
Grenoble,France,FR,45.166672,5.71667
Perpignan,France,FR,42.697639,2.89541
Beaune,France,FR,47.033329,4.83333
Angers,France,FR,47.466671,-0.55
Brest,France,FR,48.400002,-4.48333
Orléans,France,FR,47.902889,1.90389
Le Mans,France,FR,48,0.2
Metz,France,FR,49.11911,6.17269
Rouen,France,FR,49.44313,1.09932
Mulhouse,France,FR,47.75,7.33333
Le Havre,France,FR,49.493801,0.10767
Besançon,France,FR,47.248779,6.01815
Saint-Étienne,France,FR,45.433331,4.4
Amiens,France,FR,49.900002,2.3
Toulon,France,FR,43.116669,5.93333
Tbilisi,Georgia,GE,41.694111,44.833679
Berlin,Germany,DE,52.524368,13.41053
Hamburg,Germany,DE,53.575321,10.01534
München,Germany,DE,48.137428,11.57549
Köln,Germany,DE,50.933331,6.95
Düsseldorf,Germany,DE,51.221722,6.77616
Dresden,Germany,DE,51.050892,13.73832
Hannover,Germany,DE,52.370522,9.73322
Stuttgart,Germany,DE,48.782318,9.17702
Leipzig,Germany,DE,51.339619,12.37129
Frankfurt am Main,Germany,DE,50.11552,8.68417
Bremen,Germany,DE,53.075161,8.80777
Essen,Germany,DE,51.45657,7.01228
Bonn,Germany,DE,50.734379,7.09548
Heidelberg,Germany,DE,49.407681,8.69079
Dortmund,Germany,DE,51.514938,7.466
Trier,Germany,DE,49.75565,6.63935
Karlsruhe,Germany,DE,49.004719,8.38583
Wiesbaden,Germany,DE,50.082581,8.24932
Rostock,Germany,DE,54.088699,12.14049
Potsdam,Germany,DE,52.398861,13.06566
Baden-Baden,Germany,DE,48.760601,8.23975
Regensburg,Germany,DE,49.014999,12.09556
Garmisch-Partenkirchen,Germany,DE,47.492088,11.09576
Kiel,Germany,DE,54.321331,10.13489
Kassel,Germany,DE,51.316669,9.5
Aachen,Germany,DE,50.776642,6.08342
Freiburg,Germany,DE,47.995899,7.85222
Lübeck,Germany,DE,53.868931,10.68729
Mainz,Germany,DE,49.984192,8.2791
Augsburg,Germany,DE,48.366669,10.88333
Erfurt,Germany,DE,50.978699,11.03283
Mannheim,Germany,DE,49.496712,8.47955
Bochum,Germany,DE,51.481651,7.21648
Wuppertal,Germany,DE,51.270271,7.16755
Bielefeld,Germany,DE,52.033329,8.53333
Nürnberg,Germany,DE,49.454208,11.07752
Braunschweig,Germany,DE,52.265942,10.52673
Duisburg,Germany,DE,51.432468,6.76516
Magdeburg,Germany,DE,52.127731,11.62916
Chemnitz,Germany,DE,50.833328,12.91667
Mülheim (Ruhr),Germany,DE,51.433331,6.88333
Neuß,Germany,DE,51.198071,6.68504
Gelsenkirchen,Germany,DE,51.5075,7.12283
Krefeld,Germany,DE,51.339211,6.58615
Oberhausen,Germany,DE,51.47311,6.88074
Osnabrück,Germany,DE,52.27264,8.0498
Münster,Germany,DE,51.96236,7.62571
Hagen,Germany,DE,51.360809,7.47168
Leverkusen,Germany,DE,51.0303,6.98432
Accra,Ghana,GH,5.55602,-0.1969
Athens,Greece,GR,37.97945,23.716221
Réthymno,Greece,GR,35.366871,24.474871
Chaniá,Greece,GR,35.511238,24.029209
Ágios Nikólaos,Greece,GR,35.191059,25.71524
Thessaloníki,Greece,GR,40.640282,22.94389
Kos,Greece,GR,36.89333,27.288891
Piraeus,Greece,GR,37.947449,23.637079
Antigua Guatemala,Guatemala,GT,14.56111,-90.734444
Guatemala City,Guatemala,GT,14.64072,-90.513268
Port-au-Prince,Haiti,HT,18.539169,-72.334999
San Pedro Sula,Honduras,HN,15.50417,-88.025002
Tegucigalpa,Honduras,HN,14.0818,-87.20681
Hong Kong,Hong Kong,HK,22.285521,114.157692
Kowloon,Hong Kong,HK,22.316669,114.183327
Budapest,Hungary,HU,47.498009,19.039909
Szeged,Hungary,HU,46.252998,20.148239
Debrecen,Hungary,HU,47.533329,21.633329
Pécs,Hungary,HU,46.083328,18.23333
Reykjavík,Iceland,IS,64.135483,-21.895411
New Delhi,India,IN,28.635759,77.224449
Mumbai,India,IN,19.07283,72.882607
Jaipur,India,IN,26.919621,75.787811
Chennai,India,IN,13.08784,80.278473
Cochin,India,IN,9.93988,76.260223
Āgra,India,IN,27.183331,78.01667
Hyderābād,India,IN,17.38405,78.45636
Pune,India,IN,18.519569,73.855347
Gurgaon,India,IN,28.4601,77.026352
Calangute,India,IN,15.5439,73.755302
Ahmadābād,India,IN,23.025789,72.587257
Kolkata,India,IN,22.56263,88.363037
Manali,India,IN,13.16667,80.26667
Udaipur,India,IN,24.571171,73.691833
Munnar,India,IN,10.08873,77.062691
Amritsar,India,IN,31.63661,74.874763
Jodhpur,India,IN,26.26841,73.005943
Mysore,India,IN,12.29791,76.639252
Ooty,India,IN,11.4134,76.695213
Jaisalmer,India,IN,26.917629,70.90387
Chandīgarh,India,IN,30.73629,76.788399
Vārānasi,India,IN,25.316681,83.010422
Srīnagar,India,IN,34.088421,74.802979
Navi Mumbai,India,IN,19.03681,73.015823
Noida,India,IN,28.58,77.330002
Thiruvananthapuram,India,IN,8.4855,76.949242
Vadodara,India,IN,22.2994,73.208122
Bīkāner,India,IN,28.020941,73.307487
Nāgpur,India,IN,21.15,79.099998
Indore,India,IN,22.71792,75.833298
Ludhiāna,India,IN,30.90015,75.852287
Farīdābād,India,IN,28.412519,77.319771
Madurai,India,IN,9.91735,78.119621
Bhubaneshwar,India,IN,20.272409,85.833847
Sūrat,India,IN,21.19594,72.830231
Coimbatore,India,IN,11.00555,76.966118
Lucknow,India,IN,26.839279,80.923126
Rājkot,India,IN,22.291611,70.793221
Bhopāl,India,IN,23.25469,77.402893
Ubud,Indonesia,ID,-8.5098,115.265404
Kuta,Indonesia,ID,-8.72332,115.17234
Jakarta,Indonesia,ID,-6.21462,106.845131
Bandung,Indonesia,ID,-6.90389,107.618607
Yogyakarta,Indonesia,ID,-7.78278,110.360832
Makassar,Indonesia,ID,-5.14,119.422096
Surabaya,Indonesia,ID,-7.24917,112.750832
Semarang,Indonesia,ID,-6.9932,110.420303
Medan,Indonesia,ID,3.58333,98.666672
Pekanbaru,Indonesia,ID,0.53333,101.449997
Balikpapan,Indonesia,ID,-1.26753,116.828873
Malang,Indonesia,ID,-7.9797,112.630402
Manado,Indonesia,ID,1.487,124.845497
Padang,Indonesia,ID,-0.94924,100.354271
Tangerang,Indonesia,ID,-6.17806,106.629997
Bogor,Indonesia,ID,-6.59444,106.789169
Pontianak,Indonesia,ID,-0.03333,109.333328
Dublin,Ireland,IE,53.333061,-6.24889
Gaillimh,Ireland,IE,53.271938,-9.04889
Luimneach,Ireland,IE,52.664719,-8.62306
Cork,Ireland,IE,51.897968,-8.47061
Tel Aviv,Israel,IL,32.080879,34.780571
Jerusalem,Israel,IL,31.769039,35.216331
Eilat,Israel,IL,29.55805,34.948212
Haifa,Israel,IL,32.818409,34.988499
Rome,Italy,IT,41.894741,12.4839
Firenze,Italy,IT,43.76667,11.25
Rimini,Italy,IT,44.063332,12.58083
Milan,Italy,IT,45.464272,9.18951
Sorrento,Italy,IT,40.626011,14.37441
Palermo,Italy,IT,38.115822,13.35976
Venezia,Italy,IT,45.43861,12.32667
Napoli,Italy,IT,40.833328,14.25
Verona,Italy,IT,45.434189,10.99779
Bologna,Italy,IT,44.493809,11.33875
Turin,Italy,IT,45.070492,7.68682
Riccione,Italy,IT,43.99942,12.65689
Montecatini-Terme,Italy,IT,43.883549,10.77361
Mestre,Italy,IT,45.49028,12.2425
Pisa,Italy,IT,43.71553,10.39659
Lucca,Italy,IT,43.843571,10.50585
Siena,Italy,IT,43.320042,11.33283
Assisi,Italy,IT,43.069141,12.61646
Bergamo,Italy,IT,45.697979,9.66895
Trapani,Italy,IT,38.015839,12.51077
Catania,Italy,IT,37.502129,15.08719
Alghero,Italy,IT,40.558891,8.31806
Cattolica,Italy,IT,43.95747,12.73755
Perugia,Italy,IT,43.112202,12.38878
Ischia,Italy,IT,40.735229,13.94813
Lecce,Italy,IT,40.357029,18.17202
Viareggio,Italy,IT,43.873539,10.2558
Padova,Italy,IT,45.415192,11.88181
Siracusa,Italy,IT,37.085152,15.273
Desenzano del Garda,Italy,IT,45.467979,10.53398
Cesenatico,Italy,IT,44.199871,12.3991
Cagliari,Italy,IT,39.207378,9.13462
Ragusa,Italy,IT,36.928242,14.71719
Cervia,Italy,IT,44.262039,12.34812
Trieste,Italy,IT,45.648609,13.78
Jesolo,Italy,IT,45.533112,12.64475
Como,Italy,IT,45.809978,9.08744
Agrigento,Italy,IT,37.31168,13.57962
Ferrara,Italy,IT,44.826778,11.62071
Olbia,Italy,IT,40.921371,9.48563
Merano,Italy,IT,46.668171,11.15953
Abano Terme,Italy,IT,45.360989,11.79141
La Spezia,Italy,IT,44.110538,9.84339
Pompei,Italy,IT,40.746109,14.49734
Ravenna,Italy,IT,44.4175,12.20111
Ostuni,Italy,IT,40.727631,17.57641
Orvieto,Italy,IT,42.719528,12.11156
Parma,Italy,IT,44.802662,10.32898
Mantova,Italy,IT,45.160309,10.79784
Arezzo,Italy,IT,43.461391,11.87691
Marsala,Italy,IT,37.796638,12.43518
Matera,Italy,IT,40.668522,16.60158
Gallipoli,Italy,IT,40.055561,17.976391
Sciacca,Italy,IT,37.506931,13.08399
Cortona,Italy,IT,43.27467,11.98533
Brescia,Italy,IT,45.52478,10.22727
Bari,Italy,IT,41.117729,16.851179
Modena,Italy,IT,44.647831,10.92539
Prato,Italy,IT,43.884251,11.09092
Livorno,Italy,IT,43.542641,10.316
Messina,Italy,IT,38.193272,15.54969
Salerno,Italy,IT,40.677971,14.76599
Taranto,Italy,IT,40.476109,17.229719
Montego Bay,Jamaica,JM,18.471161,-77.918831
Kingston,Jamaica,JM,17.997021,-76.793579
Tokyo,Japan,JP,35.689499,139.691711
Kyoto,Japan,JP,35.021069,135.753845
Ōsaka-shi,Japan,JP,34.693741,135.502182
Sapporo,Japan,JP,43.064171,141.346939
Fukuoka-shi,Japan,JP,33.606392,130.41806
Naha-shi,Japan,JP,26.2125,127.681107
Nagoya-shi,Japan,JP,35.181469,136.906403
Kōbe-shi,Japan,JP,34.691299,135.182999
Yokohama-shi,Japan,JP,35.447781,139.642502
Hiroshima-shi,Japan,JP,34.396271,132.459366
Takayama,Japan,JP,36.133331,137.25
Nara-shi,Japan,JP,34.685051,135.804855
Kitakyūshū,Japan,JP,33.833328,130.833328
Nagasaki-shi,Japan,JP,32.74472,129.873611
Hamamatsu,Japan,JP,34.700001,137.733337
Chiba,Japan,JP,35.604721,140.123337
Gifu-shi,Japan,JP,35.422909,136.760391
Kawasaki,Japan,JP,35.520561,139.717224
Sakai,Japan,JP,34.583328,135.466675
Himeji,Japan,JP,34.816669,134.699997
Kurashiki,Japan,JP,34.583328,133.766663
Fukuyama,Japan,JP,34.48333,133.366669
Amman,Jordan,JO,31.955219,35.94503
Astana,Kazakhstan,KZ,51.180099,71.445976
Almaty,Kazakhstan,KZ,43.256538,76.928482
Nairobi,Kenya,KE,-1.28333,36.816669
Bishkek,Kyrgyzstan,KG,42.869999,74.589996
Louangphabang,Laos,LA,19.886009,102.135033
Vientiane,Laos,LA,17.966669,102.599998
Riga,Latvia,LV,56.945999,24.10589
Beirut,Lebanon,LB,33.888939,35.494419
Vilnius,Lithuania,LT,54.689159,25.2798
Kaunas,Lithuania,LT,54.900002,23.9
Luxembourg,Luxembourg,LU,49.611671,6.13
Macau,Macao,MO,22.20056,113.546112
Ohrid,Macedonia,MK,41.117222,20.801941
Skopje,Macedonia,MK,42.001221,21.42878
Kuala Lumpur,Malaysia,MY,3.1412,101.686531
Kota Kinabalu,Malaysia,MY,5.9749,116.072403
Johor Bahru,Malaysia,MY,1.4655,103.757797
Kuching,Malaysia,MY,1.55,110.333328
Ipoh,Malaysia,MY,4.5841,101.082901
Petaling Jaya,Malaysia,MY,3.10726,101.606712
Sandakan,Malaysia,MY,5.8402,118.117897
Kuantan,Malaysia,MY,3.8077,103.325996
Subang Jaya,Malaysia,MY,3.04384,101.58062
Shah Alam,Malaysia,MY,3.08507,101.532806
Playa del Carmen,Mexico,MX,20.627399,-87.079872
Mexico City,Mexico,MX,19.428471,-99.127663
Cancún,Mexico,MX,21.17429,-86.846558
Puerto Vallarta,Mexico,MX,20.620411,-105.230659
Guadalajara,Mexico,MX,20.66667,-103.333328
Mérida,Mexico,MX,20.966669,-89.616669
Morelia,Mexico,MX,19.700781,-101.184433
San Miguel de Allende,Mexico,MX,20.91667,-100.75
Cabo San Lucas,Mexico,MX,22.890881,-109.912376
San Cristóbal de Las Casas,Mexico,MX,16.737881,-92.638191
Mazatlán,Mexico,MX,23.232901,-106.406158
Monterrey,Mexico,MX,25.66667,-100.316673
Veracruz,Mexico,MX,19.18074,-96.134048
Cuernavaca,Mexico,MX,18.942011,-99.226463
Guanajuato,Mexico,MX,21.018579,-101.259102
Tijuana,Mexico,MX,32.502701,-117.003708
Aguascalientes,Mexico,MX,21.883329,-102.300003
San José del Cabo,Mexico,MX,23.05888,-109.697708
San Luis Potosí,Mexico,MX,22.15,-100.98333
Villahermosa,Mexico,MX,17.98333,-92.916672
Campeche,Mexico,MX,19.85,-90.533333
Ixtapa,Mexico,MX,20.71623,-105.204079
Chihuahua,Mexico,MX,28.633329,-106.083328
Tuxtla Gutiérrez,Mexico,MX,16.75,-93.116669
Ciudad Juárez,Mexico,MX,31.73333,-106.48333
Hermosillo,Mexico,MX,29.066669,-110.966667
Saltillo,Mexico,MX,25.41667,-101
Culiacán,Mexico,MX,24.79944,-107.389717
Toluca,Mexico,MX,19.28833,-99.667221
León,Mexico,MX,21.121309,-101.668007
Mexicali,Mexico,MX,32.651939,-115.46833
Torreón,Mexico,MX,25.543329,-103.417603
Zapopan,Mexico,MX,20.72356,-103.384789
Reynosa,Mexico,MX,26.076811,-98.297478
Durango,Mexico,MX,24.033331,-104.666672
Chişinău,Moldova,MD,47.005562,28.8575
Marrakesh,Morocco,MA,31.634159,-7.99994
Agadir,Morocco,MA,30.420179,-9.59815
Essaouira,Morocco,MA,31.512501,-9.77
Casablanca,Morocco,MA,33.58831,-7.61138
Fès,Morocco,MA,34.037151,-4.9998
Rabat,Morocco,MA,34.013248,-6.83255
Tangier,Morocco,MA,35.767269,-5.79975
Meknès,Morocco,MA,33.89352,-5.54727
Mandalay,Myanmar,MM,21.97473,96.083588
Kathmandu,Nepal,NP,27.701691,85.320602
Pokhara,Nepal,NP,28.26689,83.968513
Amsterdam,Netherlands,NL,52.374031,4.88969
Rotterdam,Netherlands,NL,51.922501,4.47917
The Hague,Netherlands,NL,52.076672,4.29861
Maastricht,Netherlands,NL,50.848331,5.68889
Utrecht,Netherlands,NL,52.090832,5.12222
Eindhoven,Netherlands,NL,51.44083,5.47778
Groningen,Netherlands,NL,53.21917,6.56667
Breda,Netherlands,NL,51.586559,4.77596
Nijmegen,Netherlands,NL,51.842499,5.85278
Haarlem,Netherlands,NL,52.38084,4.63683
Hoofddorp,Netherlands,NL,52.302502,4.68889
Arnhem,Netherlands,NL,51.98,5.91111
Amersfoort,Netherlands,NL,52.154999,5.3875
Apeldoorn,Netherlands,NL,52.209999,5.96944
Tilburg,Netherlands,NL,51.555511,5.0913
Christchurch,New Zealand,NZ,-43.533329,172.633331
Auckland,New Zealand,NZ,-36.866669,174.766663
Rotorua,New Zealand,NZ,-38.138741,176.245163
Wellington,New Zealand,NZ,-41.28664,174.775574
Managua,Nicaragua,NI,12.13282,-86.250397
Granada,Nicaragua,NI,11.92988,-85.956017
Lagos,Nigeria,NG,6.45306,3.39583
Abuja,Nigeria,NG,9.06853,7.48375
Oslo,Norway,NO,59.912731,10.74609
Bergen,Norway,NO,60.39299,5.32415
Muscat,Oman,OM,23.613871,58.592201
Asunción,Paraguay,PY,-25.300659,-57.63591
Lima,Peru,PE,-12.04318,-77.028236
Cusco,Peru,PE,-13.52264,-71.967339
Arequipa,Peru,PE,-16.39889,-71.535004
Puno,Peru,PE,-15.8422,-70.019897
Trujillo,Peru,PE,-8.11599,-79.029984
Iquitos,Peru,PE,-3.74912,-73.25383
Manila,Philippines,PH,14.6042,120.982201
Puerto Princesa,Philippines,PH,9.73917,118.735283
Angeles City,Philippines,PH,15.15,120.583328
Quezon City,Philippines,PH,14.6488,121.050903
Davao,Philippines,PH,7.07306,125.612778
Iloilo,Philippines,PH,10.69694,122.564438
Cagayan de Oro,Philippines,PH,8.48222,124.647217
Kraków,Poland,PL,50.061432,19.936581
Warsaw,Poland,PL,52.229771,21.01178
Gdańsk,Poland,PL,54.352051,18.64637
Poznań,Poland,PL,52.406921,16.92993
Zakopane,Poland,PL,49.298988,19.948851
Sopot,Poland,PL,54.441799,18.56003
Wrocław,Poland,PL,51.099998,17.033331
Szczecin,Poland,PL,53.42894,14.55302
Gdynia,Poland,PL,54.51889,18.531879
Lublin,Poland,PL,51.25,22.566669
Katowice,Poland,PL,50.258419,19.02754
Łódź,Poland,PL,51.75,19.466669
Bydgoszcz,Poland,PL,53.123501,18.00762
Toruń,Poland,PL,53.013748,18.598141
Olsztyn,Poland,PL,53.779949,20.49416
Lisbon,Portugal,PT,38.716671,-9.13333
Albufeira,Portugal,PT,37.088188,-8.2503
Funchal,Portugal,PT,32.633331,-16.9
Porto,Portugal,PT,41.149609,-8.61099
Lagos,Portugal,PT,37.10202,-8.67422
Cascais,Portugal,PT,38.697899,-9.42146
Ponta Delgada,Portugal,PT,37.73333,-25.66667
Portimão,Portugal,PT,37.138561,-8.53775
Vilamoura,Portugal,PT,37.081001,-8.11083
Carvoeiro,Portugal,PT,37.099998,-8.466667
Braga,Portugal,PT,41.55032,-8.42005
Coimbra,Portugal,PT,40.205639,-8.41955
Setúbal,Portugal,PT,38.524399,-8.8882
San Juan,Puerto Rico,PR,18.46633,-66.105721
Doha,Qatar,QA,25.27932,51.522449
Belgrade,Republic of Serbia,RS,44.804008,20.46513
Novi Sad,Republic of Serbia,RS,45.251671,19.836941
Bucharest,Romania,RO,44.432251,26.10626
Timişoara,Romania,RO,45.753719,21.22571
Cluj-Napoca,Romania,RO,46.76667,23.6
Braşov,Romania,RO,45.648609,25.606131
Constanţa,Romania,RO,44.183331,28.65
Ploieşti,Romania,RO,44.950001,26.01667
Oradea,Romania,RO,47.066669,21.933331
Moscow,Russian Federation,RU,55.75222,37.615559
Kazan,Russian Federation,RU,55.788738,49.122139
Krasnodar,Russian Federation,RU,45.044842,38.976028
Novosibirsk,Russian Federation,RU,55.0415,82.934601
Samara,Russian Federation,RU,53.200062,50.150002
Saint Petersburg,Russian Federation,RU,59.89444,30.26417
Kaliningrad,Russian Federation,RU,54.70649,20.51095
Vladivostok,Russian Federation,RU,43.105621,131.873535
Yekaterinburg,Russian Federation,RU,56.857498,60.612499
Yaroslavl',Russian Federation,RU,57.629871,39.87368
Sochi,Russian Federation,RU,43.599171,39.725689
Riyadh,Saudi Arabia,SA,24.687731,46.721851
Jeddah,Saudi Arabia,SA,21.516939,39.21917
Medina,Saudi Arabia,SA,24.468611,39.61417
Dammam,Saudi Arabia,SA,26.43442,50.10326
Dakar,Senegal,SN,14.6937,-17.444059
Singapore,Singapore,SG,1.28967,103.850067
Bratislava,Slovakia,SK,48.148159,17.106741
Košice,Slovakia,SK,48.713951,21.25808
Ljubljana,Slovenia,SI,46.051079,14.50513
Cape Town,South Africa,ZA,-33.925838,18.42322
Johannesburg,South Africa,ZA,-26.202271,28.043631
Port Elizabeth,South Africa,ZA,-33.917992,25.57007
Pretoria,South Africa,ZA,-25.74486,28.18783
Durban,South Africa,ZA,-29.857901,31.0292
Seoul,South Korea,KR,37.56826,126.977829
Busan,South Korea,KR,35.102779,129.040283
Jeju,South Korea,KR,33.50972,126.521942
Incheon,South Korea,KR,37.453609,126.731667
Suigen,South Korea,KR,37.291111,127.008888
Goyang,South Korea,KR,37.656391,126.834999
Barcelona,Spain,ES,41.38879,2.15899
Madrid,Spain,ES,40.4165,-3.70256
Benidorm,Spain,ES,38.538158,-0.13098
Valencia,Spain,ES,39.469749,-0.37739
Playa del Ingles,Spain,ES,27.756701,-15.5787
Málaga,Spain,ES,36.720161,-4.42034
Salou,Spain,ES,41.07663,1.14163
Sevilla,Spain,ES,37.382408,-5.97613
Marbella,Spain,ES,36.51543,-4.88583
Puerto del Carmen,Spain,ES,28.92313,-13.66579
Lloret de Mar,Spain,ES,41.699928,2.84565
Torremolinos,Spain,ES,36.62035,-4.49976
Granada,Spain,ES,37.188171,-3.60667
Palma,Spain,ES,39.569389,2.65024
Puerto de la Cruz,Spain,ES,28.413971,-16.54867
Fuengirola,Spain,ES,36.539982,-4.62473
Benalmádena,Spain,ES,36.595482,-4.56937
Alicante,Spain,ES,38.345169,-0.48149
Roquetas de Mar,Spain,ES,36.764191,-2.61475
Calp,Spain,ES,38.644699,0.0445
Nerja,Spain,ES,36.752781,-3.8744
Córdoba,Spain,ES,37.883331,-4.76667
Alcúdia,Spain,ES,39.853161,3.12138
Zaragoza,Spain,ES,41.656059,-0.87734
Adeje,Spain,ES,28.122709,-16.726
Santiago de Compostela,Spain,ES,42.88052,-8.54569
Malgrat de Mar,Spain,ES,41.646622,2.74135
Bilbao,Spain,ES,43.262711,-2.92528
Oviedo,Spain,ES,43.360291,-5.84476
Sitges,Spain,ES,41.235062,1.81193
Donostia / San Sebastián,Spain,ES,43.312832,-1.97499
Toledo,Spain,ES,39.858101,-4.02263
Sant Antoni de Portmany,Spain,ES,38.980679,1.30362
Las Palmas de Gran Canaria,Spain,ES,28.09973,-15.41343
Estepona,Spain,ES,36.427639,-5.14589
Ronda,Spain,ES,36.74231,-5.16709
Gijón,Spain,ES,43.535728,-5.66152
Calella,Spain,ES,41.618019,2.66781
Calvià,Spain,ES,39.565701,2.50621
Salamanca,Spain,ES,40.968819,-5.66388
Ibiza,Spain,ES,38.908829,1.43296
Jerez de la Frontera,Spain,ES,36.686451,-6.13606
Pamplona,Spain,ES,42.816872,-1.64323
San Bartolomé,Spain,ES,27.92481,-15.57329
Vigo,Spain,ES,42.232819,-8.72264
Valladolid,Spain,ES,41.655182,-4.72372
Burgos,Spain,ES,42.349998,-3.7
Santander,Spain,ES,43.464722,-3.80444
Murcia,Spain,ES,37.987041,-1.13004
Santa Cruz de Tenerife,Spain,ES,28.468241,-16.25462
Almería,Spain,ES,36.838139,-2.45974
Alcalá de Henares,Spain,ES,40.482052,-3.35996
Cartagena,Spain,ES,37.605122,-0.98623
Elche,Spain,ES,38.26218,-0.70107
Negombo,Sri Lanka,LK,7.2083,79.8358
Colombo,Sri Lanka,LK,6.93194,79.847778
Kandy,Sri Lanka,LK,7.2955,80.635597
Paramaribo,Suriname,SR,5.86638,-55.166821
Stockholm,Sweden,SE,59.332581,18.064899
Göteborg,Sweden,SE,57.707161,11.96679
Malmö,Sweden,SE,55.605869,13.00073
Zürich,Switzerland,CH,47.366669,8.55
Basel,Switzerland,CH,47.558399,7.57327
Lugano,Switzerland,CH,46.010078,8.96004
Bern,Switzerland,CH,46.94809,7.44744
Lausanne,Switzerland,CH,46.515999,6.63282
Taipei,Taiwan,TW,25.04776,121.531853
Kaohsiung,Taiwan,TW,22.616261,120.313332
Taichung,Taiwan,TW,24.1469,120.683899
Hengchun,Taiwan,TW,22.004169,120.743889
Zanzibar,Tanzania,TZ,-6.16394,39.197929
Dar es Salaam,Tanzania,TZ,-6.82349,39.269508
Arusha,Tanzania,TZ,-3.36667,36.683331
Bangkok,Thailand,TH,13.75398,100.501442
Chiang Mai,Thailand,TH,18.79038,98.98468
Phatthaya,Thailand,TH,12.93333,100.883331
Hua Hin,Thailand,TH,12.57065,99.958763
Krabi,Thailand,TH,8.07257,98.910522
Cha-am,Thailand,TH,12.8,99.966667
Phuket,Thailand,TH,7.89059,98.398102
Chiang Rai,Thailand,TH,19.908581,99.832497
Hat Yai,Thailand,TH,7.00836,100.476677
Udon Thani,Thailand,TH,17.41567,102.785889
Si Racha,Thailand,TH,13.17372,100.931107
Al Ḩammāmāt,Tunisia,TN,36.400002,10.61667
Sousse,Tunisia,TN,35.82539,10.63699
Tunis,Tunisia,TN,36.81897,10.16579
İstanbul,Turkey,TR,41.01384,28.949659
Alanya,Turkey,TR,36.543751,31.999821
Marmaris,Turkey,TR,36.855,28.27417
Side,Turkey,TR,36.76667,31.388889
Belek,Turkey,TR,36.862782,31.055559
Kuşadası,Turkey,TR,37.855621,27.256599
Antalya,Turkey,TR,36.908119,30.69556
Bodrum,Turkey,TR,37.03833,27.429171
Kemer,Turkey,TR,36.597778,30.56056
Fethiye,Turkey,TR,36.62167,29.11639
İzmir,Turkey,TR,38.412731,27.13838
Ankara,Turkey,TR,39.919868,32.854271
Bursa,Turkey,TR,40.192661,29.08403
Adana,Turkey,TR,37.001671,35.328892
Gaziantep,Turkey,TR,37.059441,37.3825
Konya,Turkey,TR,37.871349,32.484638
Kampala,Uganda,UG,0.31628,32.582191
Kiev,Ukraine,UA,50.454659,30.5238
Odessa,Ukraine,UA,46.47747,30.73262
L'viv,Ukraine,UA,49.838261,24.023239
Dubai,United Arab Emirates,AE,25.258169,55.304722
Abu Dhabi,United Arab Emirates,AE,24.466669,54.366669
Sharjah,United Arab Emirates,AE,25.33737,55.41206
London,United Kingdom,GB,51.50853,-0.12574
Edinburgh,United Kingdom,GB,55.952061,-3.19648
Blackpool,United Kingdom,GB,53.816669,-3.05
York,United Kingdom,GB,53.95763,-1.08271
Glasgow,United Kingdom,GB,55.86515,-4.25763
Manchester,United Kingdom,GB,53.480949,-2.23743
Liverpool,United Kingdom,GB,53.41058,-2.97794
Birmingham,United Kingdom,GB,52.481419,-1.89983
Bournemouth,United Kingdom,GB,50.720482,-1.8795
Brighton,United Kingdom,GB,50.828381,-0.13947
Bristol,United Kingdom,GB,51.455231,-2.59665
Torquay,United Kingdom,GB,50.46384,-3.51434
Newcastle upon Tyne,United Kingdom,GB,54.973282,-1.61396
Bath,United Kingdom,GB,51.377949,-2.35907
Aberdeen,United Kingdom,GB,57.143688,-2.09814
Leeds,United Kingdom,GB,53.796478,-1.54785
Reading,United Kingdom,GB,51.456249,-0.97113
Scarborough,United Kingdom,GB,54.279659,-0.40443
Belfast,United Kingdom,GB,54.583328,-5.93333
Cambridge,United Kingdom,GB,52.200001,0.11667
Eastbourne,United Kingdom,GB,50.768711,0.28453
Nottingham,United Kingdom,GB,52.953602,-1.15047
Sheffield,United Kingdom,GB,53.382969,-1.4659
Oxford,United Kingdom,GB,51.75222,-1.25596
Newquay,United Kingdom,GB,50.41317,-5.08186
Cardiff,United Kingdom,GB,51.48,-3.18
Norwich,United Kingdom,GB,52.627831,1.29834
Inverness,United Kingdom,GB,57.47908,-4.22398
Chester,United Kingdom,GB,53.190498,-2.89189
Great Yarmouth,United Kingdom,GB,52.608311,1.73052
Derby,United Kingdom,GB,52.922771,-1.47663
Harrogate,United Kingdom,GB,53.99078,-1.5373
Southampton,United Kingdom,GB,50.90395,-1.40428
Coventry,United Kingdom,GB,52.406559,-1.51217
Plymouth,United Kingdom,GB,50.371529,-4.14305
Luton,United Kingdom,GB,51.879669,-0.41748
Preston,United Kingdom,GB,53.76667,-2.71667
Bradford,United Kingdom,GB,53.793911,-1.75206
Northampton,United Kingdom,GB,52.25,-0.88333
Leicester,United Kingdom,GB,52.638599,-1.13169
Hull,United Kingdom,GB,53.744598,-0.33525
Wolverhampton,United Kingdom,GB,52.585468,-2.12296
Orlando,United States,US,28.53834,-81.379242
New York City,United States,US,40.714272,-74.005966
Miami Beach,United States,US,25.790649,-80.130051
Houston,United States,US,29.763281,-95.363274
San Francisco,United States,US,37.774929,-122.419418
San Antonio,United States,US,29.42412,-98.493629
San Diego,United States,US,32.715328,-117.157257
Las Vegas,United States,US,36.174969,-115.137222
Los Angeles,United States,US,34.052231,-118.243683
Indianapolis,United States,US,39.768379,-86.158043
Atlanta,United States,US,33.749001,-84.387978
Fort Lauderdale,United States,US,26.122311,-80.143379
Dallas,United States,US,32.783058,-96.806671
Myrtle Beach,United States,US,33.68906,-78.886688
Chicago,United States,US,41.850029,-87.650047
Charlotte,United States,US,35.227089,-80.843132
Phoenix,United States,US,33.44838,-112.074043
New Orleans,United States,US,29.954651,-90.075073
Columbus,United States,US,39.961182,-82.998787
Miami,United States,US,25.774269,-80.193657
Albuquerque,United States,US,35.084492,-106.651138
Tampa,United States,US,27.947519,-82.458427
Kissimmee,United States,US,28.30468,-81.416672
Tucson,United States,US,32.221741,-110.926483
Nashville,United States,US,36.16589,-86.784439
Boston,United States,US,42.358429,-71.059769
"Washington, D. C.",United States,US,38.895111,-77.036369
Jacksonville,United States,US,30.33218,-81.655647
Denver,United States,US,39.739151,-104.984703
Anaheim,United States,US,33.835289,-117.914497
Seattle,United States,US,47.606209,-122.332069
Savannah,United States,US,32.083542,-81.099831
Austin,United States,US,30.267151,-97.743057
Oklahoma City,United States,US,35.46756,-97.516434
Kansas City,United States,US,39.099731,-94.578568
Virginia Beach,United States,US,36.852928,-75.977982
South Lake Tahoe,United States,US,38.933239,-119.984352
Fort Worth,United States,US,32.72541,-97.320847
Louisville,United States,US,38.254238,-85.759407
Honolulu,United States,US,21.30694,-157.858337
Naples,United States,US,26.14204,-81.794807
Tulsa,United States,US,36.15398,-95.992783
Key West,United States,US,24.5557,-81.782593
Memphis,United States,US,35.149529,-90.048981
Sacramento,United States,US,38.58157,-121.4944
Irving,United States,US,32.814018,-96.948891
Raleigh,United States,US,35.772099,-78.638611
Scottsdale,United States,US,33.509209,-111.899033
Santa Fe,United States,US,35.686981,-105.937798
Daytona Beach,United States,US,29.21081,-81.022827
Salt Lake City,United States,US,40.76078,-111.891052
Colorado Springs,United States,US,38.833881,-104.821358
Portland,United States,US,45.523449,-122.676208
Knoxville,United States,US,35.96064,-83.920738
El Paso,United States,US,31.75872,-106.486931
Chattanooga,United States,US,35.045631,-85.309677
Columbia,United States,US,34.00071,-81.034813
Philadelphia,United States,US,39.952339,-75.163788
Springfield,United States,US,37.215328,-93.298241
Charleston,United States,US,32.776569,-79.930923
Palm Springs,United States,US,33.830299,-116.545288
Monterey,United States,US,36.600239,-121.894676
Durham,United States,US,35.99403,-78.898621
Jackson,United States,US,32.298759,-90.184807
Omaha,United States,US,41.25861,-95.93779
Wichita,United States,US,37.692242,-97.33754
Pittsburgh,United States,US,40.44062,-79.995888
Birmingham,United States,US,33.52066,-86.80249
Corpus Christi,United States,US,27.800579,-97.396378
Santa Barbara,United States,US,34.42083,-119.698189
Baton Rouge,United States,US,30.45075,-91.154549
Lexington,United States,US,37.988689,-84.477722
Augusta,United States,US,33.47097,-81.974838
Baltimore,United States,US,39.290379,-76.61219
Fresno,United States,US,36.74773,-119.772369
Montgomery,United States,US,32.36681,-86.299973
Cleveland,United States,US,41.4995,-81.695412
Fort Myers,United States,US,26.621679,-81.840591
Fredericksburg,United States,US,38.303181,-77.460541
Anchorage,United States,US,61.21806,-149.900284
Lubbock,United States,US,33.577862,-101.855171
Richmond,United States,US,37.553761,-77.460258
Tallahassee,United States,US,30.438259,-84.280731
Macon,United States,US,32.840691,-83.632401
San Jose,United States,US,37.33939,-121.894958
St. Louis,United States,US,38.62727,-90.197891
Madison,United States,US,43.073051,-89.40123
Asheville,United States,US,35.600948,-82.554024
Brooklyn,United States,US,40.650101,-73.949577
Cincinnati,United States,US,39.161999,-84.456886
Lincoln,United States,US,40.799999,-96.666962
Greenville,United States,US,35.612659,-77.366348
Bakersfield,United States,US,35.373291,-119.018707
Greensboro,United States,US,36.072639,-79.791977
Milwaukee,United States,US,43.038898,-87.906471
Flagstaff,United States,US,35.198071,-111.651268
Newport,United States,US,41.490101,-71.312828
Amarillo,United States,US,35.222,-101.831299
Hollywood,United States,US,26.0112,-80.14949
Clearwater,United States,US,27.965851,-82.800102
Bloomington,United States,US,44.840801,-93.298279
Florence,United States,US,34.799809,-87.677254
Long Beach,United States,US,33.76696,-118.189232
Arlington,United States,US,38.881008,-77.104279
Sarasota,United States,US,27.33643,-82.530647
Galveston,United States,US,29.30135,-94.797699
Little Rock,United States,US,34.746479,-92.289589
Boise,United States,US,43.613499,-116.203453
Bend,United States,US,44.05817,-121.315308
Mobile,United States,US,30.694361,-88.043053
Ontario,United States,US,34.063339,-117.650887
Dayton,United States,US,39.758949,-84.191612
Fargo,United States,US,46.87719,-96.789803
Harrisburg,United States,US,40.273701,-76.884422
Pensacola,United States,US,30.42131,-87.216911
Grand Rapids,United States,US,42.96336,-85.668091
North Charleston,United States,US,32.888561,-80.007507
Santa Monica,United States,US,34.019451,-118.491188
Rapid City,United States,US,44.08054,-103.23101
Somerset,United States,US,40.497601,-74.488487
Sioux Falls,United States,US,43.549969,-96.700333
Wilmington,United States,US,34.225731,-77.94471
West Palm Beach,United States,US,26.71534,-80.053368
Napa,United States,US,38.297138,-122.28553
Atlantic City,United States,US,39.364281,-74.422928
Oakland,United States,US,37.804371,-122.270798
Overland Park,United States,US,38.982231,-94.670792
Redding,United States,US,40.58654,-122.391678
Chesapeake,United States,US,36.819038,-76.27494
Spokane,United States,US,47.65966,-117.429077
Eugene,United States,US,44.052071,-123.086746
Billings,United States,US,45.783291,-108.500687
Niagara Falls,United States,US,43.094501,-79.056709
Minneapolis,United States,US,44.979969,-93.26384
Winston-Salem,United States,US,36.099861,-80.244217
Tempe,United States,US,33.414768,-111.909309
Clarksville,United States,US,36.52977,-87.359451
Green Bay,United States,US,44.519161,-88.019829
Davenport,United States,US,41.52364,-90.577637
San Luis Obispo,United States,US,35.282749,-120.659622
York,United States,US,39.962601,-76.727737
Reno,United States,US,39.529629,-119.813797
Santa Rosa,United States,US,38.440472,-122.714432
Cambridge,United States,US,42.375099,-71.105614
Yuma,United States,US,32.725319,-114.624397
Carmel,United States,US,39.978371,-86.118042
College Park,United States,US,38.980671,-76.93692
Buffalo,United States,US,42.886452,-78.878372
Plano,United States,US,33.01984,-96.698891
Huntsville,United States,US,34.73037,-86.586098
Evansville,United States,US,37.974758,-87.555847
Rochester,United States,US,44.021629,-92.469902
Schaumburg,United States,US,42.03336,-88.083412
Plymouth,United States,US,45.010521,-93.455513
Santa Cruz,United States,US,36.974121,-122.0308
Biloxi,United States,US,30.39603,-88.885307
Seaside,United States,US,36.611069,-121.851624
Fort Wayne,United States,US,41.1306,-85.12886
Fayetteville,United States,US,35.052662,-78.878357
Alexandria,United States,US,38.80484,-77.046921
McAllen,United States,US,26.203409,-98.230011
Cedar Rapids,United States,US,42.008331,-91.644073
Abilene,United States,US,32.448738,-99.733139
Las Cruces,United States,US,32.312321,-106.778343
Roanoke,United States,US,37.270969,-79.941429
Decatur,United States,US,39.840309,-88.954803
Bismarck,United States,US,46.808331,-100.783737
Grand Junction,United States,US,39.063869,-108.550652
Covington,United States,US,39.083672,-84.508553
Hot Springs,United States,US,34.5037,-93.055183
Detroit,United States,US,42.331429,-83.045753
Mesa,United States,US,33.422272,-111.822639
Newark,United States,US,40.735661,-74.172371
Shreveport,United States,US,32.52515,-93.750183
Brownsville,United States,US,25.901751,-97.497482
South Bend,United States,US,41.68338,-86.250008
Lakeland,United States,US,28.039471,-81.949799
College Station,United States,US,30.627979,-96.334412
Missoula,United States,US,46.87215,-113.994003
Bossier City,United States,US,32.515991,-93.732117
State College,United States,US,40.7934,-77.860001
Kennesaw,United States,US,34.02343,-84.615494
Princeton,United States,US,25.538441,-80.408943
Sunnyvale,United States,US,37.368832,-122.036346
Wichita Falls,United States,US,33.913712,-98.493393
Albany,United States,US,42.65258,-73.756233
Kalamazoo,United States,US,42.29171,-85.587227
South San Francisco,United States,US,37.654659,-122.407753
Marietta,United States,US,33.952599,-84.549927
Anderson,United States,US,40.10532,-85.680252
Grand Forks,United States,US,47.925259,-97.032852
Sterling,United States,US,39.006222,-77.428596
Henderson,United States,US,36.0397,-114.981941
Laredo,United States,US,27.506411,-99.507538
Newport News,United States,US,36.97876,-76.428001
Vancouver,United States,US,45.638729,-122.661491
Waco,United States,US,31.54933,-97.146667
Independence,United States,US,39.091122,-94.415512
Lansing,United States,US,42.73254,-84.555527
Manchester,United States,US,42.99564,-71.454788
Clinton,United States,US,42.586979,-82.919922
Tyler,United States,US,32.351261,-95.301064
Tuscaloosa,United States,US,33.209839,-87.569168
Canton,United States,US,42.308651,-83.482162
Lake Charles,United States,US,30.213091,-93.204399
Saint Charles,United States,US,38.783939,-90.481232
Franklin,United States,US,35.92506,-86.868889
Lancaster,United States,US,40.03788,-76.305511
New Braunfels,United States,US,29.702999,-98.124451
Palm Desert,United States,US,33.72224,-116.374458
Hanover,United States,US,39.19289,-76.724136
Bozeman,United States,US,45.679649,-111.038559
Norfolk,United States,US,36.846809,-76.285217
Chandler,United States,US,33.30616,-111.841248
Des Moines,United States,US,41.60054,-93.609108
Akron,United States,US,41.08144,-81.519012
Stockton,United States,US,37.957699,-121.290779
Chula Vista,United States,US,32.640049,-117.084198
Aurora,United States,US,39.729431,-104.831917
Irvine,United States,US,33.66946,-117.823112
Tacoma,United States,US,47.25288,-122.44429
Riverside,United States,US,33.95335,-117.396156
Glendale,United States,US,33.538651,-112.185989
Oceanside,United States,US,33.195869,-117.379478
Jersey City,United States,US,40.728161,-74.077637
San Bernardino,United States,US,34.108341,-117.289772
Santa Ana,United States,US,33.745571,-117.867828
Huntington Beach,United States,US,33.660301,-117.999229
Garden Grove,United States,US,33.773911,-117.941452
Arlington,United States,US,32.735691,-97.10807
Toledo,United States,US,41.66394,-83.555206
Jamaica,United States,US,40.69149,-73.805687
Fremont,United States,US,37.548271,-121.988571
Modesto,United States,US,37.639099,-120.99688
Oxnard,United States,US,34.197498,-119.177048
Rochester,United States,US,43.154781,-77.615562
Worcester,United States,US,42.262589,-71.802292
Providence,United States,US,41.82399,-71.412827
Hollywood,United States,US,34.098339,-118.326736
Port Saint Lucie,United States,US,27.29393,-80.350327
Garland,United States,US,32.912621,-96.638878
Rancho Cucamonga,United States,US,34.1064,-117.593109
Staten Island,United States,US,40.562328,-74.139862
Fontana,United States,US,34.092232,-117.435051
Montevideo,Uruguay,UY,-34.833462,-56.167351
Colonia del Sacramento,Uruguay,UY,-34.46262,-57.83976
Tashkent,Uzbekistan,UZ,41.264648,69.21627
Samarqand,Uzbekistan,UZ,39.654171,66.959717
Caracas,Venezuela,VE,10.48801,-66.879189
Hà Nội,Vietnam,VN,21.0245,105.841171
Ho Chi Minh City,Vietnam,VN,10.75,106.666672
Nha Trang,Vietnam,VN,12.25,109.183327
Hội An,Vietnam,VN,15.87944,108.334999
Turan,Vietnam,VN,16.06778,108.220833
Huế,Vietnam,VN,16.466669,107.599998
Phan Thiết,Vietnam,VN,10.93333,108.099998
Lusaka,Zambia,ZM,-15.40669,28.28713
Harare,Zimbabwe,ZW,-17.827721,31.05337
